NORAD_CAT_ID,OBJECT_NAME,OBJECT_TYPE,EPOCH,MEAN_MOTION,ECCENTRICITY,INCLINATION,RA_OF_ASC_NODE,ARG_OF_PERICENTER,MEAN_ANOMALY,BSTAR,MEAN_MOTION_DOT,MEAN_MOTION_DDOT,TLE_LINE0,TLE_LINE1,TLE_LINE2,SEMIMAJOR_AXIS,PERIOD,APOGEE,PERIGEE,DECAYED
54780.0,STARLINK-5449,PAYLOAD,2023-01-25 11:21:54,15.73222405,0.0001564,53.2162,114.7997,110.5531,249.5657,4.2923e-05,5.413e-05,0.0,0 STARLINK-5449,1 54780U 22175Y   23025.47354741  .00005413  00000-0  42923-4 0  9995,2 54780  53.2162 114.7997 0001564 110.5531 249.5657 15.73222405  5829,6727.831,91.532,350.749,348.644,0.0
54780.0,STARLINK-5449,PAYLOAD,2023-01-25 12:53:22,15.73231427,0.0001419999999999,53.2161,114.4859,85.0715,275.0468,7.383e-05,9.767e-05,0.0,0 STARLINK-5449,1 54780U 22175Y   23025.53707165  .00009767  00000-0  73830-4 0  9991,2 54780  53.2161 114.4859 0001420  85.0715 275.0468 15.73231427  5832,6727.806,91.531,350.626,348.715,0.0
54780.0,STARLINK-5449,PAYLOAD,2023-01-26 11:45:36,15.73192245,0.0001738,53.216,109.7708,89.396,270.726,-1.6332e-06,-8.5e-06,0.0,0 STARLINK-5449,1 54780U 22175Y   23026.49000665 -.00000850  00000-0 -16332-5 0  9999,2 54780  53.2160 109.7708 0001738  89.3960 270.7260 15.73192245  5984,6727.917,91.534,350.952,348.61300000000006,0.0
54780.0,STARLINK-5449,PAYLOAD,2023-01-26 22:25:57,15.73213225,0.0001512,53.2162,107.5711,99.4939,260.6252,2.8606e-05,3.398e-05,0.0,0 STARLINK-5449,1 54780U 22175Y   23026.93469158  .00003398  00000-0  28606-4 0  9998,2 54780  53.2162 107.5711 0001512  99.4939 260.6252 15.73213225  6054,6727.857,91.532,350.74,348.705,0.0
54780.0,STARLINK-5449,PAYLOAD,2023-01-27 09:06:19,15.73206284,0.0001346,53.2156,105.3694,96.6706,263.4467,-2.0732e-06,-9.11e-06,0.0,0 STARLINK-5449,1 54780U 22175Y   23027.37938852 -.00000911  00000-0 -20732-5 0  9992,2 54780  53.2156 105.3694 0001346  96.6706 263.4467 15.73206284  6123,6727.877,91.533,350.648,348.837,0.0
54780.0,STARLINK-5449,PAYLOAD,2023-01-28 11:01:29,15.73215438,0.0001288,53.2165,100.0252,128.5443,231.5693,4.0399e-05,5.057e-05,0.0,0 STARLINK-5449,1 54780U 22175Y   23028.45937117  .00005057  00000-0  40399-4 0  9999,2 54780  53.2165 100.0252 0001288 128.5443 231.5693 15.73215438  6299,6727.851,91.532,350.583,348.85,0.0
54780.0,STARLINK-5449,PAYLOAD,2023-01-28 12:32:58,15.73214627,0.0001229,53.2162,99.7107,106.3699,253.7457,5.8972e-05,7.669e-05,0.0,0 STARLINK-5449,1 54780U 22175Y   23028.52290181  .00007669  00000-0  58972-4 0  9997,2 54780  53.2162  99.7107 0001229 106.3699 253.7457 15.73214627  8465,6727.853,91.532,350.545,348.892,0.0
54780.0,STARLINK-5449,PAYLOAD,2023-01-28 17:08:04,15.72131895,0.0004474,53.2162,98.7701,106.6279,253.5232,-0.0022594,-0.00293488,0.0,0 STARLINK-5449,1 54780U 22175Y   23028.71394439 -.00293488  00000-0 -22594-2 0  9996,2 54780  53.2162  98.7701 0004474 106.6279 253.5232 15.72131895  6333,6730.942,91.595,355.819,349.796,0.0
54780.0,STARLINK-5449,PAYLOAD,2023-01-29 06:00:00,15.73236474,0.000112,53.2155,96.1121,97.6987,62.8578,-0.00040861,-0.00057662,0.0,0 STARLINK-5449,1 54780U 22175Y   23029.25001157 -.00057662  00000-0 -40861-3 0  9998,2 54780  53.2155  96.1121 0001120  97.6987  62.8578 15.73236474  6416,6727.791,91.531,350.41,348.903,0.0
54780.0,STARLINK-5449,PAYLOAD,2023-01-29 08:00:01,15.73223816,0.0001088,53.2154,95.7003,91.8711,180.9281,-0.00035224,-0.00049811,0.0,0 STARLINK-5449,1 54780U 22175Y   23029.33334491 -.00049811  00000-0 -35224-3 0  9991,2 54780  53.2154  95.7003 0001088  91.8711 180.9281 15.73223816  1305,6727.827,91.532,350.424,348.96,0.0
54780.0,STARLINK-5449,PAYLOAD,2023-01-29 20:34:07,15.73096533,0.0001482,53.2165,93.1094,106.8765,253.2417,-0.0001836,-0.00026193,0.0,0 STARLINK-5449,1 54780U 22175Y   23029.85703384 -.00026193  00000-0 -18360-3 0  9999,2 54780  53.2165  93.1094 0001482 106.8765 253.2417 15.73096533  6510,6728.19,91.539,351.052,349.058,0.0
54780.0,STARLINK-5449,PAYLOAD,2023-01-30 08:45:53,15.73200638,0.0001184,53.2163,90.5952,69.5413,290.5734,9.9681e-06,7.79e-06,0.0,0 STARLINK-5449,1 54780U 22175Y   23030.36520387  .00000779  00000-0  99681-5 0  9994,2 54780  53.2163  90.5952 0001184  69.5413 290.5734 15.73200638  6593,6727.893,91.533,350.555,348.962,0.0
54780.0,STARLINK-5449,PAYLOAD,2023-01-30 14:51:48,15.73211035,0.0001423,53.217,89.3355,101.1806,258.9374,1.6091e-05,1.64e-05,0.0,0 STARLINK-5449,1 54780U 22175Y   23030.61930964  .00001640  00000-0  16091-4 0  9999,2 54780  53.2170  89.3355 0001423 101.1806 258.9374 15.73211035  6635,6727.864,91.533,350.686,348.771,0.0
54780.0,STARLINK-5449,PAYLOAD,2023-01-31 00:00:41,15.73203867,0.000129,53.2167,87.4513,90.4844,269.6324,6.1184e-06,2.39e-06,0.0,0 STARLINK-5449,1 54780U 22175Y   23031.00048241  .00000239  00000-0  61184-5 0  9998,2 54780  53.2167  87.4513 0001290  90.4844 269.6324 15.73203867  6694,6727.884,91.533,350.617,348.881,0.0
54780.0,STARLINK-5449,PAYLOAD,2023-01-31 06:06:36,15.73216226,0.0001503,53.216,86.1929,88.0168,272.1024,1.7198e-05,1.795e-05,0.0,0 STARLINK-5449,1 54780U 22175Y   23031.25458809  .00001795  00000-0  17198-4 0  9993,2 54780  53.2160  86.1929 0001503  88.0168 272.1024 15.73216226  6737,6727.849,91.532,350.725,348.703,0.0
54780.0,STARLINK-5449,PAYLOAD,2023-02-01 06:00:00,15.73210367,0.0001321,53.2162,81.267,89.066,151.9236,-0.00015963,-0.00022972,0.0,0 STARLINK-5449,1 54780U 22175Y   23032.25001157 -.00022972  00000-0 -15963-3 0  9993,2 54780  53.2162  81.2670 0001321  89.0660 151.9236 15.73210367  6889,6727.866,91.533,350.619,348.842,0.0
54780.0,STARLINK-5449,PAYLOAD,2023-02-01 14:00:01,15.73285837,0.0001241,53.216,79.6192,67.2687,262.6214,-0.001703,-0.00233956,0.0,0 STARLINK-5449,1 54780U 22175Y   23032.58334491 -.00233956  00000-0 -17030-2 0  9991,2 54780  53.2160  79.6192 0001241  67.2687 262.6214 15.73285837  1307,6727.65,91.528,350.35,348.681,0.0
54780.0,STARLINK-5449,PAYLOAD,2023-02-01 22:00:00,15.73137537,0.0001003,53.216,77.9677,75.8291,343.0146,-0.0067641,-0.00856105,0.0,0 STARLINK-5449,1 54780U 22175Y   23032.91667824 -.00856105  00000-0 -67641-2 0  9997,2 54780  53.2160  77.9677 0001003  75.8291 343.0146 15.73137537  6999,6728.073,91.537,350.613,349.263,0.0
54780.0,STARLINK-5449,PAYLOAD,2023-02-02 02:19:47,15.72988274,0.0001502,53.2174,77.0763,113.7734,246.3444,-0.00019522,-0.0002768,0.0,0 STARLINK-5449,1 54780U 22175Y   23033.09708197 -.00027680  00000-0 -19522-3 0  9990,2 54780  53.2174  77.0763 0001502 113.7734 246.3444 15.72988274  7021,6728.499,91.546,351.375,349.353,0.0
54780.0,STARLINK-5449,PAYLOAD,2023-02-02 06:54:27,15.72822584,0.0001192,53.2178,76.134,75.1285,284.9867,-0.00036036,-0.00050084,0.0,0 STARLINK-5449,1 54780U 22175Y   23033.28782230 -.00050084  00000-0 -36036-3 0  9994,2 54780  53.2178  76.1340 0001192  75.1285 284.9867 15.72822584  9214,6728.971,91.555,351.639,350.034,0.0
54780.0,STARLINK-5449,PAYLOAD,2023-02-03 02:45:02,15.72084764,0.0001719,53.2173,72.054,142.0937,218.0204,-0.00093699,-0.00124173,0.0,0 STARLINK-5449,1 54780U 22175Y   23034.11461434 -.00124173  00000-0 -93699-3 0  9996,2 54780  53.2173  72.0540 0001719 142.0937 218.0204 15.72084764  7186,6731.077,91.598,354.099,351.785,0.0
54780.0,STARLINK-5449,PAYLOAD,2023-02-03 14:00:01,15.69901014,0.0001277,53.2155,69.7426,75.9318,57.4907,-0.008062,-0.00885908,0.0,0 STARLINK-5449,1 54780U 22175Y   23034.58334491 -.00885908  00000-0 -80620-2 0  9998,2 54780  53.2155  69.7426 0001277  75.9318  57.4907 15.69901014  7253,6737.317,91.726,360.043,358.322,0.0
54780.0,STARLINK-5449,PAYLOAD,2023-02-04 00:00:00,15.69072866,0.0001135,53.2154,67.6897,94.3168,234.7037,-0.0081627,-0.00868319,0.0,0 STARLINK-5449,1 54780U 22175Y   23035.00001157 -.00868319  00000-0 -81627-2 0  9991,2 54780  53.2154  67.6897 0001135  94.3168 234.7037 15.69072866  1300,6739.688,91.774,362.318,360.788,0.0
54780.0,STARLINK-5449,PAYLOAD,2023-02-04 06:00:00,15.68617858,0.0001277,53.2152,66.4619,89.6916,212.0861,-0.0089665,-0.00943724,0.0,0 STARLINK-5449,1 54780U 22175Y   23035.25001157 -.00943724  00000-0 -89665-2 0  9992,2 54780  53.2152  66.4619 0001277  89.6916 212.0861 15.68617858  7363,6740.991,91.801,363.717,361.995,0.0
54780.0,STARLINK-5449,PAYLOAD,2023-02-04 14:00:01,15.67955612,0.0001164,53.2145,64.8254,73.2091,311.5726,-0.0088668,-0.00911122,0.0,0 STARLINK-5449,1 54780U 22175Y   23035.58334491 -.00911122  00000-0 -88668-2 0  9997,2 54780  53.2145  64.8254 0001164  73.2091 311.5726 15.67955612  1305,6742.889,91.839,365.539,363.969,0.0
54780.0,STARLINK-5449,PAYLOAD,2023-02-04 22:00:00,15.6727318,0.0001195,53.2147,63.1874,88.5753,18.4444,-0.0086459,-0.00855255,0.0,0 STARLINK-5449,1 54780U 22175Y   23035.91667824 -.00855255  00000-0 -86459-2 0  9993,2 54780  53.2147  63.1874 0001195  88.5753  18.4444 15.67273180  7461,6744.846,91.879,367.517,365.905,0.0
54780.0,STARLINK-5449,PAYLOAD,2023-02-05 14:00:01,15.66015413,0.0001107,53.2148,59.9219,80.9128,188.2512,-0.0098248,-0.0093072,0.0,0 STARLINK-5449,1 54780U 22175Y   23036.58335648 -.00930720  00000-0 -98248-2 0  9993,2 54780  53.2148  59.9219 0001107  80.9128 188.2512 15.66015413  7568,6748.457,91.953,371.069,369.575,0.0
54780.0,STARLINK-5449,PAYLOAD,2023-02-05 22:00:00,15.65316628,9.8e-05,53.2149,58.2886,88.9396,260.0564,-0.0092685,-0.00859959,0.0,0 STARLINK-5449,1 54780U 22175Y   23036.91667824 -.00859959  00000-0 -92685-2 0  9997,2 54780  53.2149  58.2886 0000980  88.9396 260.0564 15.65316628  1307,6750.465,91.994,372.992,371.669,0.0
54780.0,STARLINK-5449,PAYLOAD,2023-02-06 14:00:01,15.64069212,0.0001254,53.2143,55.0327,74.1309,72.2468,-0.01077,-0.00942412,0.0,0 STARLINK-5449,1 54780U 22175Y   23037.58334491 -.00942412  00000-0 -10770-1 0  9993,2 54780  53.2143  55.0327 0001254  74.1309  72.2468 15.64069212  1301,6754.054,92.068,376.766,375.072,0.0
54780.0,STARLINK-5449,PAYLOAD,2023-02-06 22:00:00,15.63368295,0.000118,53.2142,53.4043,94.1356,129.7919,-0.010104,-0.00866779,0.0,0 STARLINK-5449,1 54780U 22175Y   23037.91667824 -.00866779  00000-0 -10104-1 0  9991,2 54780  53.2142  53.4043 0001180  94.1356 129.7919 15.63368295  7777,6756.073,92.109,378.735,377.14,0.0
